STARLINK-1338           
1 45532U 20025B   26136.19785630  .00016531  00000+0  16684-3 0  9998
2 45532  53.0430 115.5336 0002746  64.0123 296.1175 15.65533423335947
STARLINK-1350           
1 45535U 20025E   26136.54829741  .00009360  00000+0  25924-3 0  9991
2 45535  53.0727  74.0379 0001697  66.0653 294.0527 15.37700517336598
STARLINK-1362           
1 45538U 20025H   26136.22549279 -.00183065  00000+0 -54815-2 0  9991
2 45538  53.1566 146.2518 0003699  66.9483 293.1909 15.34719800335533
STARLINK-1368           
1 45540U 20025K   26136.30446655  .00032977  00000+0  95621-3 0  9991
2 45540  53.1556 146.2577 0004283  42.1741 317.9591 15.35259566335534
STARLINK-1371           
1 45542U 20025M   26136.26498213  .00076500  00000+0  99456-3 0  9995
2 45542  53.0444 123.7910 0006920  38.6099 321.5406 15.58108868335830
STARLINK-1372           
1 45543U 20025N   26136.33573671  .00040841  00000+0  11601-2 0  9990
2 45543  53.1565 145.6929 0004264  34.6599 325.4681 15.35803701334648
STARLINK-1373           
1 45544U 20025P   26136.36972157  .00052425  00000+0  48069-3 0  9996
2 45544  53.0444 120.2263 0004344  15.6412 344.4737 15.67246210335898
STARLINK-1327           
1 45555U 20025AA  26136.18590567  .00044626  00000+0  44960-3 0  9999
2 45555  53.0413  97.9023 0005312  19.9196 340.2025 15.64957945336180
STARLINK-1356           
1 45564U 20025AK  26136.62381310  .00048350  00000+0  71565-3 0  9991
2 45564  53.0450 107.8251 0003865  26.0782 334.0422 15.54819986336088
STARLINK-1357           
1 45565U 20025AL  26136.52517181  .00049886  00000+0  46511-3 0  9996
2 45565  53.0463  66.4489 0007907  56.3111 303.8657 15.66828229336660
STARLINK-1361           
1 45567U 20025AN  26136.44152559  .00049461  00000+0  63915-3 0  9999
2 45567  53.0439 107.1674 0002249  25.8318 334.2806 15.58477066336088
STARLINK-1363           
1 45568U 20025AP  26136.49846132  .00399851  82065-4  65462-3 0  9998
2 45568  53.0320  53.5621 0002390 193.8570 166.2396 16.02715866336829
STARLINK-1366           
1 45569U 20025AQ  26136.66668981  .00348313  60463-4  78129-3 0  9991
2 45569  53.0332  54.6954 0000979 176.3393 117.5536 15.97242575  6053
STARLINK-1376           
1 45570U 20025AR  26136.44781243  .00022493  00000+0  63834-3 0  9997
2 45570  53.1553 121.6249 0005642  36.0536 324.0847 15.36139432335893
STARLINK-1320           
1 45572U 20025AT  26134.37911875  .00089123  00000+0  46057-3 0  9996
2 45572  53.0461  18.7856 0003499 214.0044 146.0753 15.80378744337151
STARLINK-1321           
1 45573U 20025AU  26136.14457815  .00046911  00000+0  58025-3 0  9999
2 45573  53.0422  92.6716 0005492  49.8513 310.2980 15.59645674335953
STARLINK-1331           
1 45578U 20025AZ  26136.61387643  .00052783  00000+0  66094-3 0  9996
2 45578  53.0473  97.2478 0006701  32.6693 327.4732 15.59262836336246
STARLINK-1333           
1 45580U 20025BB  26136.19100235  .00031347  00000+0  97224-3 0  9994
2 45580  53.1555 123.8580 0003436  57.2884 302.8449 15.33158237335846
STARLINK-1335           
1 45581U 20025BC  26136.37384113  .00036275  00000+0  10698-2 0  9998
2 45581  53.1530 119.9810 0004504  51.8110 308.3298 15.34679805335901
STARLINK-1337           
1 45582U 20025BD  26136.57395811  .00061174  00000+0  47511-3 0  9999
2 45582  53.0465  88.6780 0007513  41.4982 318.6604 15.71191747336340
STARLINK-1347           
1 45586U 20025BH  26136.48663946  .00048433  00000+0  46630-3 0  9994
2 45586  53.0392  58.7220 0005074  69.7959 290.3601 15.66063011336751
STARLINK-1364           
1 45589U 20025BL  26136.34542827  .00047420  00000+0  56867-3 0  9994
2 45589  53.0439  95.8595 0005410  14.2278 345.8886 15.60454199336224
STARLINK-1365           
1 45590U 20025BM  26136.47250224  .00058047  00000+0  83700-3 0  9990
2 45590  53.0460 127.9691 0006493  14.2495 345.8697 15.55441092335802
STARLINK-1443           
1 45660U 20035D   26136.40856553  .00024403  00000+0  82211-3 0  9994
2 45660  53.1330 111.1893 0004352  31.3770 328.7490 15.30634282329110
STARLINK-1446           
1 45663U 20035G   26136.43278367  .00022149  00000+0  45035-3 0  9999
2 45663  53.0236  36.8064 0004595 105.9220 254.2293 15.46241851330149
STARLINK-1448           
1 45665U 20035J   26136.57965278  .00049297  00000+0  48565-3 0  9994
2 45665  53.0446  82.2386 0007450  33.5306 326.6179 15.65462735329513
STARLINK-1451           
1 45668U 20035M   26136.44481844  .00012694  00000+0  72331-3 0  9994
2 45668  53.0508 119.3532 0002678  50.4416 309.6812 15.13148943328998
STARLINK-1452           
1 45669U 20035N   26136.50870758  .00061123  00000+0  89916-3 0  9996
2 45669  53.0271  56.1065 0000465  93.9569 266.1494 15.54893495329884
STARLINK-1453           
1 45670U 20035P   26136.61690268  .00053088  00000+0  51392-3 0  9994
2 45670  53.0420  42.4202 0003236 114.1290 246.0063 15.65895395329971
STARLINK-1454           
1 45671U 20035Q   26136.56394466  .00083046  00000+0  86330-3 0  9997
2 45671  53.0435  83.3131 0003582  22.1667 337.9501 15.63911851329491
