OBJECT_NAME,OBJECT_ID,EPOCH,MEAN_MOTION,ECCENTRICITY,INCLINATION,RA_OF_ASC_NODE,ARG_OF_PERICENTER,MEAN_ANOMALY,EPHEMERIS_TYPE,CLASSIFICATION_TYPE,NORAD_CAT_ID,ELEMENT_SET_NO,REV_AT_EPOCH,BSTAR,MEAN_MOTION_DOT,MEAN_MOTION_DDOT
STARLINK-1338,2020-025B,2026-05-16T04:44:54.784320,15.65533423,.00027463,53.0430,115.5336,64.0123,296.1175,0,U,45532,999,33594,.16683942E-3,.16531E-3,0
STARLINK-1350,2020-025E,2026-05-16T13:09:32.896224,15.37700517,.00016972,53.0727,74.0379,66.0653,294.0527,0,U,45535,999,33659,.25924076E-3,.936E-4,0
STARLINK-1362,2020-025H,2026-05-16T05:24:42.577056,15.34719800,.00036998,53.1566,146.2518,66.9483,293.1909,0,U,45538,999,33553,-.54814827E-2,-.183065E-2,0
STARLINK-1368,2020-025K,2026-05-16T07:18:25.909920,15.35259566,.00042837,53.1556,146.2577,42.1741,317.9591,0,U,45540,999,33553,.95621349E-3,.32977E-3,0
STARLINK-1371,2020-025M,2026-05-16T06:21:34.456032,15.58108868,.000692,53.0444,123.7910,38.6099,321.5406,0,U,45542,999,33583,.99455747E-3,.765E-3,0
STARLINK-1372,2020-025N,2026-05-16T08:03:27.651744,15.35803701,.00042641,53.1565,145.6929,34.6599,325.4681,0,U,45543,999,33464,.11600982E-2,.40841E-3,0
STARLINK-1373,2020-025P,2026-05-16T08:52:23.943648,15.67246210,.00043447,53.0444,120.2263,15.6412,344.4737,0,U,45544,999,33589,.48068824E-3,.52425E-3,0
STARLINK-1327,2020-025AA,2026-05-16T04:27:42.249888,15.64957945,.00053124,53.0413,97.9023,19.9196,340.2025,0,U,45555,999,33618,.44960103E-3,.44626E-3,0
STARLINK-1356,2020-025AK,2026-05-16T14:58:17.451840,15.54819986,.00038653,53.0450,107.8251,26.0782,334.0422,0,U,45564,999,33608,.7156541E-3,.4835E-3,0
STARLINK-1357,2020-025AL,2026-05-16T12:36:14.844384,15.66828229,.00079066,53.0463,66.4489,56.3111,303.8657,0,U,45565,999,33666,.46510841E-3,.49886E-3,0
STARLINK-1361,2020-025AN,2026-05-16T10:35:47.811840,15.58477066,.00022487,53.0439,107.1674,25.8318,334.2806,0,U,45567,999,33608,.63915188E-3,.49461E-3,0
STARLINK-1363,2020-025AP,2026-05-16T11:57:47.058048,16.02715866,.00023902,53.0320,53.5621,193.8570,166.2396,0,U,45568,999,33682,.65461665E-3,.399851E-2,.820647E-4
STARLINK-1366,2020-025AQ,2026-05-16T16:00:01.999584,15.97242575,.00009796,53.0332,54.6954,176.3393,117.5536,0,U,45569,999,605,.78128516E-3,.348313E-2,.60462658E-4
STARLINK-1376,2020-025AR,2026-05-16T10:44:50.993952,15.36139432,.0005642,53.1553,121.6249,36.0536,324.0847,0,U,45570,999,33589,.63833875E-3,.22493E-3,0
STARLINK-1320,2020-025AT,2026-05-14T09:05:55.860000,15.80378744,.00034992,53.0461,18.7856,214.0044,146.0753,0,U,45572,999,33715,.46057005E-3,.89123E-3,0
STARLINK-1321,2020-025AU,2026-05-16T03:28:11.552160,15.59645674,.00054924,53.0422,92.6716,49.8513,310.2980,0,U,45573,999,33595,.58024601E-3,.46911E-3,0
STARLINK-1331,2020-025AZ,2026-05-16T14:43:58.923552,15.59262836,.00067011,53.0473,97.2478,32.6693,327.4732,0,U,45578,999,33624,.66093842E-3,.52783E-3,0
STARLINK-1333,2020-025BB,2026-05-16T04:35:02.603040,15.33158237,.00034368,53.1555,123.8580,57.2884,302.8449,0,U,45580,999,33584,.97223982E-3,.31347E-3,0
STARLINK-1335,2020-025BC,2026-05-16T08:58:19.873632,15.34679805,.00045049,53.1530,119.9810,51.8110,308.3298,0,U,45581,999,33590,.10697966E-2,.36275E-3,0
STARLINK-1337,2020-025BD,2026-05-16T13:46:29.980704,15.71191747,.00075139,53.0465,88.6780,41.4982,318.6604,0,U,45582,999,33634,.47511208E-3,.61174E-3,0
STARLINK-1347,2020-025BH,2026-05-16T11:40:45.649344,15.66063011,.00050736,53.0392,58.7220,69.7959,290.3601,0,U,45586,999,33675,.46630486E-3,.48433E-3,0
STARLINK-1364,2020-025BL,2026-05-16T08:17:25.002528,15.60454199,.00054102,53.0439,95.8595,14.2278,345.8886,0,U,45589,999,33622,.56866953E-3,.4742E-3,0
STARLINK-1365,2020-025BM,2026-05-16T11:20:24.193536,15.55441092,.00064933,53.0460,127.9691,14.2495,345.8697,0,U,45590,999,33580,.83699866E-3,.58047E-3,0
STARLINK-1443,2020-035D,2026-05-16T09:48:20.061792,15.30634282,.0004352,53.1330,111.1893,31.3770,328.7490,0,U,45660,999,32911,.82211297E-3,.24403E-3,0
STARLINK-1446,2020-035G,2026-05-16T10:23:12.509088,15.46241851,.00045952,53.0236,36.8064,105.9220,254.2293,0,U,45663,999,33014,.45034915E-3,.22149E-3,0
STARLINK-1448,2020-035J,2026-05-16T13:54:42.000192,15.65462735,.00074501,53.0446,82.2386,33.5306,326.6179,0,U,45665,999,32951,.48564741E-3,.49297E-3,0
STARLINK-1451,2020-035M,2026-05-16T10:40:32.313216,15.13148943,.00026787,53.0508,119.3532,50.4416,309.6812,0,U,45668,999,32899,.72330508E-3,.12694E-3,0
STARLINK-1452,2020-035N,2026-05-16T12:12:32.335776,15.54893495,.00004647,53.0271,56.1065,93.9569,266.1494,0,U,45669,999,32988,.89915793E-3,.61123E-3,0
STARLINK-1453,2020-035P,2026-05-16T14:48:20.391552,15.65895395,.00032366,53.0420,42.4202,114.1290,246.0063,0,U,45670,999,32997,.51392003E-3,.53088E-3,0
STARLINK-1454,2020-035Q,2026-05-16T13:32:04.818624,15.63911851,.00035826,53.0435,83.3131,22.1667,337.9501,0,U,45671,999,32949,.86330275E-3,.83046E-3,0
